NORAD_CAT_ID,OBJECT_NAME,OBJECT_TYPE,EPOCH,MEAN_MOTION,ECCENTRICITY,INCLINATION,RA_OF_ASC_NODE,ARG_OF_PERICENTER,MEAN_ANOMALY,BSTAR,MEAN_MOTION_DOT,MEAN_MOTION_DDOT,TLE_LINE0,TLE_LINE1,TLE_LINE2,SEMIMAJOR_AXIS,PERIOD,APOGEE,PERIGEE,DECAYED
53823.0,STARLINK-4748,PAYLOAD,2024-08-05 12:11:08,15.08830618,0.0001587,53.2188,348.1292,110.8114,249.3048,-0.00017027,-2.996e-05,0.0,0 STARLINK-4748,1 53823U 22114F   24218.50773488 -.00002996  00000-0 -17027-3 0  9998,2 53823  53.2188 348.1292 0001587 110.8114 249.3048 15.08830618105181,6917.909,95.438,540.872,538.676,0.0
53823.0,STARLINK-4748,PAYLOAD,2024-08-05 15:21:54,15.08826658,0.0001481,53.2197,347.5362,103.5282,256.5875,0.00085216,0.00013295,0.0,0 STARLINK-4748,1 53823U 22114F   24218.64021700  .00013295  00000-0  85216-3 0  9993,2 53823  53.2197 347.5362 0001481 103.5282 256.5875 15.08826658105749,6917.921,95.438,540.811,538.762,0.0
53823.0,STARLINK-4748,PAYLOAD,2024-08-06 15:12:42,15.08832609,0.0001139,53.2181,343.0809,92.4789,267.6334,0.00033402,5.031e-05,0.0,0 STARLINK-4748,1 53823U 22114F   24219.63382557  .00005031  00000-0  33402-3 0  9992,2 53823  53.2181 343.0809 0001139  92.4789 267.6334 15.08832609105899,6917.903,95.438,540.556,538.98,0.0
53823.0,STARLINK-4748,PAYLOAD,2024-08-06 18:23:28,15.08837921,0.0001142,53.2179,342.4841,92.3936,267.7187,0.00048106,7.376e-05,0.0,0 STARLINK-4748,1 53823U 22114F   24219.76630507  .00007376  00000-0  48106-3 0  9998,2 53823  53.2179 342.4841 0001142  92.3936 267.7187 15.08837921105374,6917.887,95.438,540.542,538.962,0.0
53823.0,STARLINK-4748,PAYLOAD,2024-08-07 11:52:43,15.08840736,0.0001131,53.218,339.2108,76.5638,283.548,0.00033968,5.122e-05,0.0,0 STARLINK-4748,1 53823U 22114F   24220.49494713  .00005122  00000-0  33968-3 0  9994,2 53823  53.2180 339.2108 0001131  76.5638 283.5480 15.08840736106020,6917.878,95.438,540.526,538.961,0.0
53823.0,STARLINK-4748,PAYLOAD,2024-08-08 13:18:53,15.08844962,0.0001092,53.2173,334.4516,64.1854,295.9251,0.00021904,3.2e-05,0.0,0 STARLINK-4748,1 53823U 22114F   24221.55478565  .00003200  00000-0  21904-3 0  9991,2 53823  53.2173 334.4516 0001092  64.1854 295.9251 15.08844962106186,6917.865,95.437,540.486,538.975,0.0
53823.0,STARLINK-4748,PAYLOAD,2024-08-09 00:26:34,15.08858081,0.000102,53.217,332.368,80.8598,279.2509,0.00039458,6.001e-05,0.0,0 STARLINK-4748,1 53823U 22114F   24222.01845818  .00006001  00000-0  39458-3 0  9997,2 53823  53.2170 332.3680 0001020  80.8598 279.2509 15.08858081105719,6917.825,95.436,540.396,538.985,0.0
53823.0,STARLINK-4748,PAYLOAD,2024-08-09 13:09:40,15.08836566,0.000153,53.2183,329.9966,98.3584,261.7581,-1.7759e-05,-5.71e-06,0.0,0 STARLINK-4748,1 53823U 22114F   24222.54838757 -.00000571  00000-0 -17759-4 0  9998,2 53823  53.2183 329.9966 0001530  98.3584 261.7581 15.08836566105795,6917.891,95.438,540.814,538.697,0.0
53823.0,STARLINK-4748,PAYLOAD,2024-08-09 16:20:26,15.08852949,0.0001177,53.2171,329.3942,105.4699,254.6423,0.00035184,5.318e-05,0.0,0 STARLINK-4748,1 53823U 22114F   24222.68086140  .00005318  00000-0  35184-3 0  9997,2 53823  53.2171 329.3942 0001177 105.4699 254.6423 15.08852949105816,6917.841,95.437,540.52,538.892,0.0
53823.0,STARLINK-4748,PAYLOAD,2024-08-10 13:00:27,15.08844006,0.0001638,53.2182,325.5284,128.8323,231.2816,0.00018708,2.691e-05,0.0,0 STARLINK-4748,1 53823U 22114F   24223.54198280  .00002691  00000-0  18708-3 0  9996,2 53823  53.2182 325.5284 0001638 128.8323 231.2816 15.08844006105946,6917.868,95.437,540.866,538.6,0.0
53823.0,STARLINK-4748,PAYLOAD,2024-08-10 14:35:50,15.08848398,0.0001153,53.2176,325.2314,84.378,275.7344,0.00023338,3.429e-05,0.0,0 STARLINK-4748,1 53823U 22114F   24223.60822318  .00003429  00000-0  23338-3 0  9994,2 53823  53.2176 325.2314 0001153  84.3780 275.7344 15.08848398106493,6917.855,95.437,540.517,538.922,0.0
53823.0,STARLINK-4748,PAYLOAD,2024-08-11 12:51:14,15.08837577,0.0001243,53.2167,321.0756,78.7215,281.3917,0.00020005,2.897e-05,0.0,0 STARLINK-4748,1 53823U 22114F   24224.53558825  .00002897  00000-0  20005-3 0  9992,2 53823  53.2167 321.0756 0001243  78.7215 281.3917 15.08837577106099,6917.888,95.438,540.613,538.893,0.0
53823.0,STARLINK-4748,PAYLOAD,2024-08-11 23:58:56,15.08854072,0.000241,53.2168,318.991,95.3622,264.7645,0.00067684,0.00010504,0.0,0 STARLINK-4748,1 53823U 22114F   24224.99926512  .00010504  00000-0  67684-3 0  9992,2 53823  53.2168 318.9910 0002410  95.3622 264.7645 15.08854072106161,6917.837,95.437,541.37,538.035,0.0
53823.0,STARLINK-4748,PAYLOAD,2024-08-12 12:42:01,15.0885981,0.0003064,53.2162,316.6113,97.3605,262.7735,0.00066488,0.00010315,0.0,0 STARLINK-4748,1 53823U 22114F   24225.52918326  .00010315  00000-0  66488-3 0  9997,2 53823  53.2162 316.6113 0003064  97.3605 262.7735 15.08859810106785,6917.82,95.436,541.804,537.565,0.0
53823.0,STARLINK-4748,PAYLOAD,2024-08-12 17:28:09,15.08893764,0.0001616,53.2183,315.7186,107.2554,252.8615,0.001276,0.00020108,0.0,0 STARLINK-4748,1 53823U 22114F   24225.72788779  .00020108  00000-0  12760-2 0  9990,2 53823  53.2183 315.7186 0001616 107.2554 252.8615 15.08893764106270,6917.716,95.434,540.699,538.463,0.0
53823.0,STARLINK-4748,PAYLOAD,2024-08-13 12:32:47,15.08824869,0.0002525,53.2149,312.1519,90.2033,269.9248,-0.00077919,-0.00012663,0.0,0 STARLINK-4748,1 53823U 22114F   24226.52277753 -.00012663  00000-0 -77919-3 0  9991,2 53823  53.2149 312.1519 0002525  90.2033 269.9248 15.08824869106390,6917.927,95.439,541.538,538.045,0.0
53823.0,STARLINK-4748,PAYLOAD,2024-08-13 17:18:58,15.08814229,0.0001941,53.2178,311.2583,90.6265,269.4949,-0.0007356,-0.00011968,0.0,0 STARLINK-4748,1 53823U 22114F   24226.72150780 -.00011968  00000-0 -73560-3 0  9998,2 53823  53.2178 311.2583 0001941  90.6265 269.4949 15.08814229106421,6917.959,95.439,541.167,538.481,0.0
53823.0,STARLINK-4748,PAYLOAD,2024-08-14 06:02:03,15.08827312,0.0001542,53.2187,308.8804,81.3244,278.7922,-7.0973e-05,-1.417e-05,0.0,0 STARLINK-4748,1 53823U 22114F   24227.25143174 -.00001417  00000-0 -70973-4 0  9990,2 53823  53.2187 308.8804 0001542  81.3244 278.7922 15.08827312106500,6917.919,95.438,540.851,538.717,0.0
53823.0,STARLINK-4748,PAYLOAD,2024-08-14 12:23:36,15.08825666,0.000139,53.2173,307.6921,76.8179,283.2968,0.0012421,0.00019527,0.0,0 STARLINK-4748,1 53823U 22114F   24227.51639681  .00019527  00000-0  12421-2 0  9993,2 53823  53.2173 307.6921 0001390  76.8179 283.2968 15.08825666107084,6917.924,95.438,540.751,538.828,0.0
53823.0,STARLINK-4748,PAYLOAD,2024-08-14 21:55:55,15.08851113,0.0001352,53.2176,305.9074,74.0018,286.1123,0.0010645,0.00016699,0.0,0 STARLINK-4748,1 53823U 22114F   24227.91383344  .00016699  00000-0  10645-2 0  9992,2 53823  53.2176 305.9074 0001352  74.0018 286.1123 15.08851113107145,6917.846,95.437,540.647,538.776,0.0
53823.0,STARLINK-4748,PAYLOAD,2024-08-15 12:14:23,15.088491,0.0001369,53.2172,303.2336,90.7219,269.3929,0.0011035,0.00017322,0.0,0 STARLINK-4748,1 53823U 22114F   24228.50999394  .00017322  00000-0  11035-2 0  9994,2 53823  53.2172 303.2336 0001369  90.7219 269.3929 15.08849100107239,6917.853,95.437,540.665,538.771,0.0
53823.0,STARLINK-4748,PAYLOAD,2024-08-15 21:46:41,15.08875704,0.0001506,53.2174,301.4475,87.1091,273.0073,0.0014306,0.00022576,0.0,0 STARLINK-4748,1 53823U 22114F   24228.90742567  .00022576  00000-0  14306-2 0  9997,2 53823  53.2174 301.4475 0001506  87.1091 273.0073 15.08875704107293,6917.771,95.435,540.678,538.594,0.0
53823.0,STARLINK-4748,PAYLOAD,2024-08-16 10:29:46,15.08840503,0.0001361,53.2163,299.068,93.8255,266.2892,0.0011753,0.00018467,0.0,0 STARLINK-4748,1 53823U 22114F   24229.43734943  .00018467  00000-0  11753-2 0  9992,2 53823  53.2163 299.0680 0001361  93.8255 266.2892 15.08840503106837,6917.879,95.438,540.685,538.802,0.0
53823.0,STARLINK-4748,PAYLOAD,2024-08-17 03:59:01,15.0884422,0.0001482,53.2158,295.7998,100.1404,259.9756,0.00067988,0.0001055,0.0,0 STARLINK-4748,1 53823U 22114F   24230.16599103  .00010550  00000-0  67988-3 0  9998,2 53823  53.2158 295.7998 0001482 100.1404 259.9756 15.08844220106948,6917.867,95.437,540.758,538.707,0.0
53823.0,STARLINK-4748,PAYLOAD,2024-08-18 13:22:07,15.08853075,0.000143,53.2157,289.5493,87.9405,272.1751,0.00059423,9.185e-05,0.0,0 STARLINK-4748,1 53823U 22114F   24231.55703342  .00009185  00000-0  59423-3 0  9991,2 53823  53.2157 289.5493 0001430  87.9405 272.1751 15.08853075107158,6917.84,95.437,540.695,538.716,0.0
53823.0,STARLINK-4748,PAYLOAD,2024-08-19 13:12:55,15.08836202,0.0001306,53.2154,285.0889,99.0546,261.0594,1.3145e-05,-7.9e-07,0.0,0 STARLINK-4748,1 53823U 22114F   24232.55063714 -.00000079  00000-0  13145-4 0  9990,2 53823  53.2154 285.0889 0001306  99.0546 261.0594 15.08836202107309,6917.892,95.438,540.66,538.854,0.0
53823.0,STARLINK-4748,PAYLOAD,2024-08-20 09:52:55,15.08846216,0.0001403,53.215,281.2242,97.2435,262.8716,4.7732e-05,4.72e-06,0.0,0 STARLINK-4748,1 53823U 22114F   24233.41175386  .00000472  00000-0  47732-4 0  9990,2 53823  53.2150 281.2242 0001403  97.2435 262.8716 15.08846216107436,6917.861,95.437,540.697,538.756,0.0
53823.0,STARLINK-4748,PAYLOAD,2024-08-21 09:43:42,15.08835866,0.0001336,53.216,276.7641,95.6346,264.4799,9.8985e-05,1.288e-05,0.0,0 STARLINK-4748,1 53823U 22114F   24234.40535850  .00001288  00000-0  98985-4 0  9998,2 53823  53.2160 276.7641 0001336  95.6346 264.4799 15.08835866107581,6917.893,95.438,540.682,538.834,0.0
